[{"OBJECT_NAME":"XINGCHI-1 02A","OBJECT_ID":"2023-187A","EPOCH":"2026-03-09T23:04:08.143968","MEAN_MOTION":14.83941707,"ECCENTRICITY":0.00129983,"INCLINATION":97.9289,"RA_OF_ASC_NODE":152.4493,"ARG_OF_PERICENTER":107.7804,"MEAN_ANOMALY":252.483,"EPHEMERIS_TYPE":0,"CLASSIFICATION_TYPE":"U","NORAD_CAT_ID":58496,"ELEMENT_SET_NO":999,"REV_AT_EPOCH":12240,"BSTAR":0.00036146838,"MEAN_MOTION_DOT":2.955e-5,"MEAN_MOTION_DDOT":0},{"OBJECT_NAME":"CZ-6A DEB","OBJECT_ID":"2022-151ABA","EPOCH":"2026-03-09T03:06:04.982112","MEAN_MOTION":14.78551732,"ECCENTRICITY":0.00475601,"INCLINATION":98.5807,"RA_OF_ASC_NODE":122.4515,"ARG_OF_PERICENTER":212.538,"MEAN_ANOMALY":147.2896,"EPHEMERIS_TYPE":0,"CLASSIFICATION_TYPE":"U","NORAD_CAT_ID":55902,"ELEMENT_SET_NO":999,"REV_AT_EPOCH":17464,"BSTAR":0.0046893932,"MEAN_MOTION_DOT":0.00035038,"MEAN_MOTION_DDOT":0}]
